{"type": "FeatureCollection", "features": [ {"type": "Feature", "properties": {"norad_id": 66425, "name": "STARLINK-35555", "group": "last-30-days", "lat": 0.03519416863437385, "lon": -79.12577736671263, "alt_km": 414.99017271878984, "timestamp": "2025-12-03T13:52:08.345087+00:00", "meta": {"OBJECT_NAME": "STARLINK-35555", "OBJECT_ID": "2025-259D", "EPOCH": "2025-12-03T08:00:01.999872", "MEAN_MOTION": 15.50626762, "ECCENTRICITY": 0.000158, "INCLINATION": 43, "RA_OF_ASC_NODE": 102.3426, "ARG_OF_PERICENTER": 274.0783, "MEAN_ANOMALY": 339.236, "EPHEMERIS_TYPE": 0, "CLASSIFICATION_TYPE": "U", "NORAD_CAT_ID": 66425, "ELEMENT_SET_NO": 999, "REV_AT_EPOCH": 476, "BSTAR": -0.0024785563, "MEAN_MOTION_DOT": -0.00143362, "MEAN_MOTION_DDOT": 0}, "tle": {"line1": "1 66425U 25259D   25337.33335648 -.00143362  00000+0 -24786-2 0  9990", "line2": "2 66425  43.0000 102.3426 0001580 274.0783 339.2360 15.50626762  4768"}}, "geometry": {"type": "Point", "coordinates": [-79.12577736671263, 0.03519416863437385]}}, {"type": "Feature", "properties": {"norad_id": 66426, "name": "STARLINK-35589", "group": "last-30-days", "lat": -1.2697296153891855, "lon": -77.72762920056016, "alt_km": 415.0290321419261, "timestamp": "2025-12-03T13:52:08.345098+00:00", "meta": {"OBJECT_NAME": "STARLINK-35589", "OBJECT_ID": "2025-259E", "EPOCH": "2025-12-03T08:00:01.999872", "MEAN_MOTION": 15.50572496, "ECCENTRICITY": 0.0001468, "INCLINATION": 43, "RA_OF_ASC_NODE": 102.34, "ARG_OF_PERICENTER": 273.1777, "MEAN_ANOMALY": 342.0639, "EPHEMERIS_TYPE": 0, "CLASSIFICATION_TYPE": "U", "NORAD_CAT_ID": 66426, "ELEMENT_SET_NO": 999, "REV_AT_EPOCH": 476, "BSTAR": 0.00016401817, "MEAN_MOTION_DOT": 9.29e-05, "MEAN_MOTION_DDOT": 0}, "tle": {"line1": "1 66426U 25259E   25337.33335648  .00009290  00000+0  16402-3 0  9997", "line2": "2 66426  43.0000 102.3400 0001468 273.1777 342.0639 15.50572496  4764"}}, "geometry": {"type": "Point", "coordinates": [-77.72762920056016, -1.2697296153891855]}}, {"type": "Feature", "properties": {"norad_id": 66427, "name": "STARLINK-35611", "group": "last-30-days", "lat": -2.572726344334286, "lon": -76.33251584841389, "alt_km": 415.2300584334034, "timestamp": "2025-12-03T13:52:08.345108+00:00", "meta": {"OBJECT_NAME": "STARLINK-35611", "OBJECT_ID": "2025-259F", "EPOCH": "2025-12-03T08:00:01.999872", "MEAN_MOTION": 15.50547605, "ECCENTRICITY": 0.00013753, "INCLINATION": 43, "RA_OF_ASC_NODE": 102.3342, "ARG_OF_PERICENTER": 274.915, "MEAN_ANOMALY": 342.2556, "EPHEMERIS_TYPE": 0, "CLASSIFICATION_TYPE": "U", "NORAD_CAT_ID": 66427, "ELEMENT_SET_NO": 999, "REV_AT_EPOCH": 476, "BSTAR": 0.00051293601, "MEAN_MOTION_DOT": 0.00029831, "MEAN_MOTION_DDOT": 0}, "tle": {"line1": "1 66427U 25259F   25337.33335648  .00029831  00000+0  51294-3 0  9999", "line2": "2 66427  43.0000 102.3342 0001375 274.9150 342.2556 15.50547605  4765"}}, "geometry": {"type": "Point", "coordinates": [-76.33251584841389, -2.572726344334286]}}, {"type": "Feature", "properties": {"norad_id": 66428, "name": "STARLINK-35610", "group": "last-30-days", "lat": -3.8865199918996436, "lon": -74.92043618193107, "alt_km": 415.105257722802, "timestamp": "2025-12-03T13:52:08.345119+00:00", "meta": {"OBJECT_NAME": "STARLINK-35610", "OBJECT_ID": "2025-259G", "EPOCH": "2025-12-03T08:00:01.999872", "MEAN_MOTION": 15.50621391, "ECCENTRICITY": 0.00014258, "INCLINATION": 43, "RA_OF_ASC_NODE": 102.3293, "ARG_OF_PERICENTER": 260.8807, "MEAN_ANOMALY": 358.1841, "EPHEMERIS_TYPE": 0, "CLASSIFICATION_TYPE": "U", "NORAD_CAT_ID": 66428, "ELEMENT_SET_NO": 999, "REV_AT_EPOCH": 476, "BSTAR": -0.0017296902, "MEAN_MOTION_DOT": -0.00100672, "MEAN_MOTION_DDOT": 0}, "tle": {"line1": "1 66428U 25259G   25337.33335648 -.00100672  00000+0 -17297-2 0  9999", "line2": "2 66428  43.0000 102.3293 0001425 260.8807 358.1841 15.50621391  4768"}}, "geometry": {"type": "Point", "coordinates": [-74.92043618193107, -3.8865199918996436]}}, {"type": "Feature", "properties": {"norad_id": 66429, "name": "STARLINK-35533", "group": "last-30-days", "lat": -5.187173500890718, "lon": -73.51590601487663, "alt_km": 415.45956737533743, "timestamp": "2025-12-03T13:52:08.345129+00:00", "meta": {"OBJECT_NAME": "STARLINK-35533", "OBJECT_ID": "2025-259H", "EPOCH": "2025-12-03T08:00:01.999872", "MEAN_MOTION": 15.50581997, "ECCENTRICITY": 0.00013783, "INCLINATION": 43.0001, "RA_OF_ASC_NODE": 102.324, "ARG_OF_PERICENTER": 271.4384, "MEAN_ANOMALY": 349.5663, "EPHEMERIS_TYPE": 0, "CLASSIFICATION_TYPE": "U", "NORAD_CAT_ID": 66429, "ELEMENT_SET_NO": 999, "REV_AT_EPOCH": 476, "BSTAR": -0.00096636462, "MEAN_MOTION_DOT": -0.00056631, "MEAN_MOTION_DDOT": 0}, "tle": {"line1": "1 66429U 25259H   25337.33335648 -.00056631  00000+0 -96636-3 0  9990", "line2": "2 66429  43.0001 102.3240 0001378 271.4384 349.5663 15.50581997  4760"}}, "geometry": {"type": "Point", "coordinates": [-73.51590601487663, -5.187173500890718]}}, {"type": "Feature", "properties": {"norad_id": 66430, "name": "STARLINK-35470", "group": "last-30-days", "lat": -6.488870577269681, "lon": -72.09923726434563, "alt_km": 415.54743677581973, "timestamp": "2025-12-03T13:52:08.345142+00:00", "meta": {"OBJECT_NAME": "STARLINK-35470", "OBJECT_ID": "2025-259J", "EPOCH": "2025-12-03T08:00:01.999872", "MEAN_MOTION": 15.50605752, "ECCENTRICITY": 0.00013818, "INCLINATION": 43, "RA_OF_ASC_NODE": 102.3205, "ARG_OF_PERICENTER": 269.6303, "MEAN_ANOMALY": 353.284, "EPHEMERIS_TYPE": 0, "CLASSIFICATION_TYPE": "U", "NORAD_CAT_ID": 66430, "ELEMENT_SET_NO": 999, "REV_AT_EPOCH": 476, "BSTAR": -0.0017064222, "MEAN_MOTION_DOT": -0.00099284, "MEAN_MOTION_DDOT": 0}, "tle": {"line1": "1 66430U 25259J   25337.33335648 -.00099284  00000+0 -17064-2 0  9990", "line2": "2 66430  43.0000 102.3205 0001381 269.6303 353.2840 15.50605752  4761"}}, "geometry": {"type": "Point", "coordinates": [-72.09923726434563, -6.488870577269681]}}, {"type": "Feature", "properties": {"norad_id": 66431, "name": "STARLINK-35439", "group": "last-30-days", "lat": -7.7888482544999835, "lon": -70.67554360503024, "alt_km": 415.6108529297826, "timestamp": "2025-12-03T13:52:08.345154+00:00", "meta": {"OBJECT_NAME": "STARLINK-35439", "OBJECT_ID": "2025-259K", "EPOCH": "2025-12-03T08:00:01.999872", "MEAN_MOTION": 15.50607721, "ECCENTRICITY": 0.00013906, "INCLINATION": 43.0001, "RA_OF_ASC_NODE": 102.3142, "ARG_OF_PERICENTER": 265.381, "MEAN_ANOMALY": 359.459, "EPHEMERIS_TYPE": 0, "CLASSIFICATION_TYPE": "U", "NORAD_CAT_ID": 66431, "ELEMENT_SET_NO": 999, "REV_AT_EPOCH": 476, "BSTAR": -0.0019423211, "MEAN_MOTION_DOT": -0.00112777, "MEAN_MOTION_DDOT": 0}, "tle": {"line1": "1 66431U 25259K   25337.33335648 -.00112777  00000+0 -19423-2 0  9995", "line2": "2 66431  43.0001 102.3142 0001390 265.3810 359.4590 15.50607721  4767"}}, "geometry": {"type": "Point", "coordinates": [-70.67554360503024, -7.7888482544999835]}}, {"type": "Feature", "properties": {"norad_id": 66432, "name": "STARLINK-35446", "group": "last-30-days", "lat": -9.07154892085664, "lon": -69.2564637578447, "alt_km": 415.65901364213096, "timestamp": "2025-12-03T13:52:08.345170+00:00", "meta": {"OBJECT_NAME": "STARLINK-35446", "OBJECT_ID": "2025-259L", "EPOCH": "2025-12-03T08:00:01.999872", "MEAN_MOTION": 15.50624916, "ECCENTRICITY": 0.000147, "INCLINATION": 43, "RA_OF_ASC_NODE": 102.3083, "ARG_OF_PERICENTER": 265.8617, "MEAN_ANOMALY": 0.8689, "EPHEMERIS_TYPE": 0, "CLASSIFICATION_TYPE": "U", "NORAD_CAT_ID": 66432, "ELEMENT_SET_NO": 999, "REV_AT_EPOCH": 476, "BSTAR": -0.001841299, "MEAN_MOTION_DOT": -0.00107072, "MEAN_MOTION_DDOT": 0}, "tle": {"line1": "1 66432U 25259L   25337.33335648 -.00107072  00000+0 -18413-2 0  9996", "line2": "2 66432  43.0000 102.3083 0001470 265.8617   0.8689 15.50624916  4761"}}, "geometry": {"type": "Point", "coordinates": [-69.2564637578447, -9.07154892085664]}}, {"type": "Feature", "properties": {"norad_id": 66433, "name": "STARLINK-35457", "group": "last-30-days", "lat": -10.355500052097277, "lon": -67.81664996706041, "alt_km": 415.9720211024014, "timestamp": "2025-12-03T13:52:08.345180+00:00", "meta": {"OBJECT_NAME": "STARLINK-35457", "OBJECT_ID": "2025-259M", "EPOCH": "2025-12-03T08:00:01.999872", "MEAN_MOTION": 15.50587848, "ECCENTRICITY": 0.00013767, "INCLINATION": 43.0001, "RA_OF_ASC_NODE": 102.3052, "ARG_OF_PERICENTER": 274.3955, "MEAN_ANOMALY": 354.2749, "EPHEMERIS_TYPE": 0, "CLASSIFICATION_TYPE": "U", "NORAD_CAT_ID": 66433, "ELEMENT_SET_NO": 999, "REV_AT_EPOCH": 476, "BSTAR": -0.0011487293, "MEAN_MOTION_DOT": -0.00067177, "MEAN_MOTION_DDOT": 0}, "tle": {"line1": "1 66433U 25259M   25337.33335648 -.00067177  00000+0 -11487-2 0  9992", "line2": "2 66433  43.0001 102.3052 0001376 274.3955 354.2749 15.50587848  4769"}}, "geometry": {"type": "Point", "coordinates": [-67.81664996706041, -10.355500052097277]}}, {"type": "Feature", "properties": {"norad_id": 66434, "name": "STARLINK-35389", "group": "last-30-days", "lat": -11.63217983158933, "lon": -66.36799125368944, "alt_km": 415.7516136907625, "timestamp": "2025-12-03T13:52:08.345190+00:00", "meta": {"OBJECT_NAME": "STARLINK-35389", "OBJECT_ID": "2025-259N", "EPOCH": "2025-12-03T08:00:01.999872", "MEAN_MOTION": 15.50621683, "ECCENTRICITY": 0.00014692, "INCLINATION": 43.0001, "RA_OF_ASC_NODE": 102.3001, "ARG_OF_PERICENTER": 258.4124, "MEAN_ANOMALY": 12.1502, "EPHEMERIS_TYPE": 0, "CLASSIFICATION_TYPE": "U", "NORAD_CAT_ID": 66434, "ELEMENT_SET_NO": 999, "REV_AT_EPOCH": 476, "BSTAR": -0.0017171451, "MEAN_MOTION_DOT": -0.00099954, "MEAN_MOTION_DDOT": 0}, "tle": {"line1": "1 66434U 25259N   25337.33335648 -.00099954  00000+0 -17171-2 0  9997", "line2": "2 66434  43.0001 102.3001 0001469 258.4124  12.1502 15.50621683  4761"}}, "geometry": {"type": "Point", "coordinates": [-66.36799125368944, -11.63217983158933]}}]}